[{"OBJECT_NAME":"SITRO-AIS 5 (KATYS)","OBJECT_ID":"2023-091L","EPOCH":"2026-03-09T22:36:44.932608","MEAN_MOTION":15.27079182,"ECCENTRICITY":0.00133776,"INCLINATION":97.5176,"RA_OF_ASC_NODE":132.0172,"ARG_OF_PERICENTER":94.5677,"MEAN_ANOMALY":265.709,"EPHEMERIS_TYPE":0,"CLASSIFICATION_TYPE":"U","NORAD_CAT_ID":57176,"ELEMENT_SET_NO":999,"REV_AT_EPOCH":14918,"BSTAR":0.00057530772,"MEAN_MOTION_DOT":0.00015262,"MEAN_MOTION_DDOT":0},{"OBJECT_NAME":"STARLINK-32659","OBJECT_ID":"2024-249U","EPOCH":"2026-03-09T23:22:57.363456","MEAN_MOTION":15.27603893,"ECCENTRICITY":0.00013021,"INCLINATION":42.9991,"RA_OF_ASC_NODE":312.7722,"ARG_OF_PERICENTER":256.0996,"MEAN_ANOMALY":103.9711,"EPHEMERIS_TYPE":0,"CLASSIFICATION_TYPE":"U","NORAD_CAT_ID":62427,"ELEMENT_SET_NO":999,"REV_AT_EPOCH":6785,"BSTAR":0.0014840477,"MEAN_MOTION_DOT":0.00040832,"MEAN_MOTION_DDOT":0}]
